[{"OBJECT_NAME":"WILDFIRE 4","OBJECT_ID":"2023-133A","EPOCH":"2026-03-09T14:48:10.641312","MEAN_MOTION":13.86338286,"ECCENTRICITY":0.0008775,"INCLINATION":80.9988,"RA_OF_ASC_NODE":101.8986,"ARG_OF_PERICENTER":262.7751,"MEAN_ANOMALY":97.2408,"EPHEMERIS_TYPE":0,"CLASSIFICATION_TYPE":"U","NORAD_CAT_ID":57756,"ELEMENT_SET_NO":999,"REV_AT_EPOCH":12732,"BSTAR":6.2929e-5,"MEAN_MOTION_DOT":8.4e-7,"MEAN_MOTION_DDOT":0},{"OBJECT_NAME":"FENGYUN 1C DEB","OBJECT_ID":"1999-025CYB","EPOCH":"2026-03-07T22:02:52.151424","MEAN_MOTION":14.01777869,"ECCENTRICITY":0.00689181,"INCLINATION":99.2398,"RA_OF_ASC_NODE":127.4761,"ARG_OF_PERICENTER":47.8119,"MEAN_ANOMALY":312.887,"EPHEMERIS_TYPE":0,"CLASSIFICATION_TYPE":"U","NORAD_CAT_ID":32334,"ELEMENT_SET_NO":999,"REV_AT_EPOCH":95133,"BSTAR":0.00034799406,"MEAN_MOTION_DOT":4.94e-6,"MEAN_MOTION_DDOT":0}]
